OBJECT_NAME,OBJECT_ID,EPOCH,MEAN_MOTION,ECCENTRICITY,INCLINATION,RA_OF_ASC_NODE,ARG_OF_PERICENTER,MEAN_ANOMALY,EPHEMERIS_TYPE,CLASSIFICATION_TYPE,NORAD_CAT_ID,ELEMENT_SET_NO,REV_AT_EPOCH,BSTAR,MEAN_MOTION_DOT,MEAN_MOTION_DDOT
ONEWEB-0162,2021-025Q,2026-06-16T03:20:58.111008,13.13469416,.0001978,87.8956,320.4319,94.0042,266.1313,0,U,48056,999,25340,-.99127E-3,-.349E-5,0
ONEWEB-0155,2021-025R,2026-06-16T03:30:54.662400,13.13469574,.000182,87.8957,320.4268,102.0663,258.0670,0,U,48057,999,25354,-.10508E-2,-.371E-5,0
ONEWEB-0149,2021-025S,2026-06-16T04:02:36.927744,13.13470523,.0002014,87.8960,320.4261,93.6492,266.4867,0,U,48058,999,25335,.25216E-3,.105E-5,0
ONEWEB-0148,2021-025T,2026-06-16T03:08:58.634016,13.13469603,.0002422,87.8953,320.4403,93.1511,266.9896,0,U,48059,999,25347,-.57456E-3,-.197E-5,0
ONEWEB-0160,2021-025U,2026-06-16T03:33:20.613600,13.13471065,.0001435,87.8952,320.4329,74.7059,285.4229,0,U,48060,999,25342,-.86523E-3,-.303E-5,0
ONEWEB-0163,2021-025V,2026-06-16T03:11:24.128160,13.13470374,.0001974,87.8960,320.4303,104.0774,256.0575,0,U,48061,999,25354,-.57238E-3,-.196E-5,0
ONEWEB-0159,2021-025W,2026-06-16T02:59:13.267104,13.13470488,.0001918,87.8963,320.4257,103.9745,256.1597,0,U,48062,999,25346,.48278E-4,.3E-6,0
ONEWEB-0164,2021-025X,2026-06-16T04:22:06.354336,13.13470993,.0001734,87.8963,320.4207,96.0764,264.0563,0,U,48063,999,25345,.12226E-2,.459E-5,0
ONEWEB-0167,2021-025Y,2026-06-16T03:12:36.851040,13.13468293,.0001676,87.8952,320.4400,118.0599,242.0700,0,U,48064,999,25343,-.54817E-3,-.187E-5,0
ONEWEB-0166,2021-025Z,2026-06-15T22:16:25.983264,13.13470121,.0002022,87.8962,320.4524,96.4245,263.7114,0,U,48065,999,25348,-.10153E-2,-.358E-5,0
ONEWEB-0151,2021-025AA,2026-06-16T03:47:58.059168,13.13470924,.0001743,87.8953,320.4234,100.2855,259.8471,0,U,48066,999,25345,-.45307E-3,-.153E-5,0
ONEWEB-0170,2021-025AB,2026-06-16T04:00:09.864576,13.13470650,.0001366,87.8956,320.4238,95.7718,264.3567,0,U,48067,999,25341,.67017E-4,.37E-6,0
ONEWEB-0168,2021-025AC,2026-06-16T03:38:13.308288,13.13469604,.0001978,87.8962,320.4267,100.8834,259.2518,0,U,48068,999,25342,-.10289E-2,-.363E-5,0
ONEWEB-0173,2021-025AD,2026-06-16T03:26:02.042016,13.13470055,.0001931,87.8954,320.4298,108.0581,252.0758,0,U,48069,999,25366,-.94827E-3,-.334E-5,0
ONEWEB-0171,2021-025AE,2026-06-16T04:19:40.365120,13.13469756,.0001739,87.8952,320.4307,98.1885,261.9442,0,U,48070,999,25348,.49926E-3,.195E-5,0
ONEWEB-0172,2021-025AF,2026-06-16T03:50:24.055296,13.13471564,.0001793,87.8958,320.4246,102.4935,257.6394,0,U,48071,999,25437,-.35696E-3,-.118E-5,0
ONEWEB-0174,2021-025AG,2026-06-16T03:23:36.292128,13.13470731,.0001996,87.8956,320.4274,96.7285,263.4071,0,U,48072,999,25369,-.9236E-3,-.325E-5,0
ONEWEB-0175,2021-025AH,2026-06-16T04:07:29.078112,13.13471069,.0001512,87.8963,320.4058,102.6064,257.5234,0,U,48073,999,25335,.46319E-3,.182E-5,0
ONEWEB-0177,2021-025AJ,2026-06-16T04:24:32.558688,13.13470240,.0002036,87.8959,320.4219,100.3121,259.8237,0,U,48074,999,25354,.63245E-3,.244E-5,0
ONEWEB-0178,2021-025AK,2026-06-16T03:01:50.945376,13.13468122,.0001717,87.8945,320.4460,104.7707,255.3612,0,U,48075,999,25358,-.15295E-3,-.43E-6,0
ONEWEB-0108,2021-025AL,2026-06-16T03:52:51.136608,13.13470266,.0001914,87.8962,320.4177,90.2568,269.8781,0,U,48076,999,25351,-.41348E-3,-.138E-5,0
ONEWEB-0169,2021-025AM,2026-06-16T02:49:28.515360,13.13469596,.0001943,87.8956,320.4344,96.2534,263.8817,0,U,48077,999,25216,.5359E-3,.208E-5,0
ONEWEB-0176,2021-031A,2026-06-16T00:53:36.328992,13.14503277,.0001878,87.8965,289.9284,103.5281,256.6058,0,U,48210,999,24816,.18865E-3,.83E-6,0
ONEWEB-0184,2021-031B,2026-06-15T20:35:33.693504,13.14502837,.00014969,87.8970,289.9648,124.8515,235.2756,0,U,48211,999,24811,.28399867E-3,.118E-5,0
ONEWEB-0179,2021-031C,2026-06-16T01:00:29.930112,14.25522201,.0218698,87.8989,287.2480,260.9784,96.6602,0,U,48212,999,24888,.58606E-4,.194E-5,0
ONEWEB-0180,2021-031D,2026-06-16T02:08:57.691104,13.14503176,.0002166,87.8965,289.9150,111.6930,248.4431,0,U,48213,999,24807,.59113E-3,.232E-5,0
ONEWEB-0218,2021-031E,2026-06-16T00:51:19.372032,13.14502144,.0001801,87.8974,289.9247,128.2251,231.9041,0,U,48214,999,24822,.92899E-4,.47E-6,0
ONEWEB-0209,2021-031F,2026-06-16T02:24:55.917216,13.14502057,.0002104,87.8963,289.9290,104.1803,255.9560,0,U,48215,999,24823,.9245E-3,.356E-5,0
ONEWEB-0198,2021-031G,2026-06-16T02:02:18.822048,13.14502637,.000205,87.8954,289.9314,113.2843,246.8503,0,U,48216,999,24834,.23674E-3,.101E-5,0
ONEWEB-0189,2021-031H,2026-06-16T02:20:22.924320,13.14503125,.000199,87.8968,289.9149,111.0283,249.1060,0,U,48217,999,24808,.68481E-3,.267E-5,0
